facility_id,facility_name,basin,city,state,zip_code,primary_naics_code,industry_type_subpart,total_emissions_2020,total_emissions_2019,total_emissions_2018,total_emissions_2017,total_emissions_2016,total_emissions_2015,total_emissions_2014,total_emissions_2013,total_emissions_2012,total_emissions_2011
1000355,#540 BONANZA CREEK ENERGY - DENVER BASIN,540 - Denver Basin,Denver,CO,80202,211120,W-ONSH,293919.042,330937.72,273069.722,242958.734,261382.84,354850.7,243116.642,163013.8,151519.07,17728.25
1009238,220 Gulf Coast Basin DEC,"220 - Gulf Coast Basin (LA, TX)",Oklahoma City,OK,73102,211120,W-ONSH,586008.596,678933.08,811064.85,767413.32,808767.966,747874.26,171273.574,63896.146,94675.778,148424.596
1009170,260 East Texas Basin - BP America Production Company,260 - East Texas Basin,Houston,TX,77079,211130,W-ONSH,23735.104,76941.042,97345.036,67155.314,43942.41,42528.246,52433.886,62617.866,34844.106,40809.11
1009265,360 Anadarko Basin,360 - Anadarko Basin,Oklahoma City,OK,73142,211120,W-ONSH,124278.886,215964.304,253819.352,136681.234,311050.436,328260.992,258855.004,188100.356,206799.244,243416.194
1008287,360 Anadarko Basin DEC,360 - Anadarko Basin,Oklahoma City,OK,73102,211120,W-ONSH,319410.352,356909.018,447672.782,406376.586,252802.366,353194.722,381235.414,357671.756,396990.192,392734.616
1009281,395 Williston Basin QEP Energy Company,395 - Williston Basin,Denver,CO,80265,211120,W-ONSH,288651.938,334639.282,368280.778,349332.43,402104.536,547374.12,1062194.902,791734.17,226559.414,65451.136
1009276,415 Strawn Basin BKV,415 - Strawn Basin,Bridgeport,TX,76426,211120,W-ONSH,54645.812,54343.214,78816.522,221400.294,210443.35,188286.7,135593.948,204624.762,220281.886,280102.866
1008289,420 Fort Worth Syncline BKV,420 - Fort Worth Syncline,Bridgeport,TX,76426,211120,W-ONSH,428738.36,436885.218,441347.456,501431.448,494024.2,539760.19,499147.794,553615.534,731800.136,700990.432
1008290,430 Permian Basin DEC,430 - Permian Basin,Oklahoma City,OK,73102,211120,W-ONSH,517053.884,735790.076,676403.48,269530.824,355198.684,1951072.342,1073197.732,508022.914,551620.576,292748.384
1008622,535 Green River Basin - BP America Production Company,535 - Green River Basin,Houston,TX,77079,211130,W-ONSH,378232.832,357229.178,431334.762,527676.48,937829.9,929804.558,830568.134,804376.79,716661.178,746531.676
1009076,580 San Juan Basin - Simcoe LLC,580 - San Juan Basin,DURANGO,CO,81301,211130,W-ONSH,1076366.59,1126149.108,1204716.792,1335105.636,1633541.602,1418584.802,1324080.918,1341704.792,1014237.582,1038792.08
1008499,745 San Joaquin Basin Chevron USA Inc.,745 - San Joaquin Basin,San Ramon,CA,94583,211120,W-ONSH,12725.082,13570.822,18832.168,21156.97,19815.358,28318.686,33624.472,27096.472,24888.598,87678.662
1009862,"Amplify Energy Operating LLC 220 Gulf Coast Basin (LA, TX)","220 - Gulf Coast Basin (LA, TX)",Houston,TX,77002,211130,W-ONSH,28241.578,21850.966,24061.36,62609.654,56792.974,53026.572,77510.268,47961.678,126322.856,132826.576
1009845,Anadarko Basin,360 - Anadarko Basin,Irving,TX,75039,211130,W-ONSH,56612.002,54794.454,56362.05,55926.452,56004.604,56066.39,35360.454,32923.714,107748.474,189536.586
1010183,Antero Resources - 160A - Appalachian Basin (Eastern Overthurst Area),160A - Appalachian Basin (Eastern Overthrust Area),Denver,CO,80202,211120,W-ONSH,366201.372,388889.532,382230.154,381565.266,329642.938,309155.256,424088.288,415414.248,516702.206,105916.95
1008224,Apache Corporation - Gulf Coast Basin 220,"220 - Gulf Coast Basin (LA, TX)",Houston,TX,77056,211130,W-ONSH,40376.302,94850.758,84091.59,26892.2,48272.094,87194.43,148819.448,109369.498,113038.074,87706.768
1009391,Apache Corporation - Permian Basin 430,430 - Permian Basin,Houston,TX,77056,211120,W-ONSH,512564.958,264941.676,237425.38,224093.774,161393.952,233427.612,357543.356,415901.446,831300.906,920656.86
1008937,Appalachian Basin - AAPG Province 160A,160A - Appalachian Basin (Eastern Overthrust Area),Williamsport,PA,17701,211130,W-ONSH,130253.462,122764.534,82243.828,64890.742,103111.118,97517.592,115599.634,175063.152,183180.872,704800.896
1010205,Arkoma Basin,345 - Arkoma Basin,OKC,OK,73102,211130,W-ONSH,374546.066,1091358.06,1292746.58,1203181.132,1090397.57,1343629.018,1105019.77,911113.382,880783.174,787392.388
1008795,"Arsenal Resources, LLC 160A Appalachian Basin",160A - Appalachian Basin (Eastern Overthrust Area),Wexford,PA,15090,211130,W-ONSH,23193.162,33041.304,33172.166,171809.878,20306.2,31046.598,19895.434,63610.39,49054.76,53508.942
1009732,BKV Operating LLC,160A - Appalachian Basin (Eastern Overthrust Area),Denver,CO,80202,211130,W-ONSH,79943.104,68772.614,52583.156,39077.48,35693.13,31492.28,38463.692,62996.466,63123.49,60325.7
1008548,BOC 220 Gulf Coast Basin Onshore,"220 - Gulf Coast Basin (LA, TX)",Wichita Falls,TX,76301,211120,W-ONSH,19749.444,23148.242,23375.192,25422.39,16705.65,41724.65,46182.64,12719.936,16193.036,19292.036
1008492,"BPX Energy Arkla Basin, AAPG Basin 230",230 - Arkla Basin,Houston,TX,77079,211130,W-ONSH,53592.5,53577.5,95129.788,98420.434,68268.642,97391.88,233562.646,272526.838,324165.17,282086.482
1008632,"BPX Energy Permian Basin, AAPG Basin 430",430 - Permian Basin,Houston,TX,77079,211130,W-ONSH,821395.58,932235.916,611040.27,470279.794,611149.912,803741.976,195346.198,227180.764,128658.448,85080.56
1008630,"BPX Energy Petrohawk Gulf Coast Basin, AAPG Basin 220","220 - Gulf Coast Basin (LA, TX)",Houston,TX,77079,211130,W-ONSH,299617.636,350889.98,282923.26,358728.61,464939.358,770238.902,854269.304,962769.33,488479.128,206809.826
1010319,BREITBURN OPERATING LP-BASIN 507,507 - Central Western Overthrust,GREEN RIVER,WY,82935,211120,W-ONSH,12326.846,17551.944,18233.398,19106.648,26697.492,28016.892,36614.192,39395.792,38115.644,45702.142
1010157,BREITBURN OPERATING LP-BASIN 535,535 - Green River Basin,GREEN RIVER,WY,82935,211120,W-ONSH,52411.544,71346.686,89424.234,97116.486,98775.988,116397.484,124203.79,148539.888,212090.186,232207.286
1008576,Basin 220 South TX & South LA - OSP,"220 - Gulf Coast Basin (LA, TX)",Dallas,TX,75201,211120,W-ONSH,607.15,639.7,600.1,31726.612,66263.3,32984.404,33278.132,49736.578,78287.61,28703.172
1008270,Basin 540 Denver Julesburg - Noble Energy Inc.,540 - Denver Basin,Houston,TX,77070,211130,W-ONSH,380154.532,536242.656,573001.696,683248.998,375558.852,644986.896,698674.04,846216.626,663919.954,539847.946
1008165,Berry Petroleum Company 585 Piceance Basin Production Segment,595 - Piceance Basin,Bakersfield,CA,93309,211130,W-ONSH,43180.248,45001.744,45317.644,41394.35,47900.548,66872.24,62688.048,96831.95,67200.65,92282.154
1009813,Breitburn Operating LP 430 Permian,430 - Permian Basin,Houston,TX,77010,211120,W-ONSH,2485.848,11510.844,35636.194,85200.686,85646.332,89042.086,92553.476,60712.566,67465.25,58831.85
1010784,"Burnett Oil Co., Inc. 430 Permian Basin",430 - Permian Basin,Fort Worth,TX,76102,211120,W-ONSH,13360.504,24764.738,26682.888,16408.718,19421.964,63265.308,23394.69,179520.452,58259.028,58040.578
1008784,CNX Gas Company LLC -160 Appalachian Basin,160 - Appalachian Basin,Canonsburg,PA,15317,211130,W-ONSH,214.0,262.85,218.0,33282.746,39729.834,49992.82,182479.75,191224.79,42087.916,135100.55
1008783,CNX Gas Company LLC -160A Appalachian Basin Eastern Overthrust Area,160A - Appalachian Basin (Eastern Overthrust Area),Canonsburg,PA,15317,211130,W-ONSH,230367.524,232165.932,216589.412,767658.24,565948.578,593175.378,366037.25,987228.766,373273.746,416004.806
1009707,COG Operating LLC  430 Permian Basin,430 - Permian Basin,Midland,TX,79701,211120,W-ONSH,1250032.472,1409171.27,1403345.644,1231787.596,2443822.828,1939559.5,375722.35,286073.4,289382.4,242592.2
1008472,CRI 360 Anadarko,360 - Anadarko Basin,Oklahoma City,OK,73102,211120,W-ONSH,450823.622,642824.16,897296.712,748677.076,679611.114,375363.734,299647.706,163185.986,289958.222,455978.634
1008471,CRI 395 Williston,395 - Williston Basin,Oklahoma City,OK,73102,211120,W-ONSH,1711594.22,3010593.896,2362287.802,1625650.358,1674608.056,1402187.238,1291886.08,683264.352,559697.236,1629774.786
1008503,Cabot Oil & Gas Corporation 160A Appalachian Basin (Eastern Overthrust area),160A - Appalachian Basin (Eastern Overthrust Area),Houston,TX,77024,211130,W-ONSH,219638.164,530869.938,428318.536,360368.52,287297.334,321847.042,189410.984,247815.76,901166.626,739900.89
1008296,Caerus Piceance LLC,595 - Piceance Basin,Parachute,CO,81635,211130,W-ONSH,256595.398,438230.098,537701.236,315794.09,69260.908,61521.246,59946.764,22078.2,124561.246,139471.33
1008405,California Resources Production Corporation â€“ Sacramento Valley Basin 730,730 - Sacramento Basin,Bakersfield,CA,93311,211130,W-ONSH,4697.05,7019.85,11428.95,21221.648,46554.98,215535.676,220565.494,226970.816,280791.964,84156.904
1009728,Callon (Eagle Ford) - Basin 220,"220 - Gulf Coast Basin (LA, TX)",Houston,TX,77042,211120,W-ONSH,180367.242,117845.62,342959.95,384423.348,412857.314,434412.342,294527.562,240897.52,145607.794,43192.138
1008523,"Chesapeake Appalachia LLC, 160A - Appalachian Basin (Eastern Overthrust Area)",160A - Appalachian Basin (Eastern Overthrust Area),Oklahoma City,OK,73118,211130,W-ONSH,283073.702,191767.076,171904.452,155480.93,124641.758,148065.402,215020.822,368074.72,449390.576,394866.244
1008526,"Chesapeake Operating LLC, 220 - Gulf Coast Basin","220 - Gulf Coast Basin (LA, TX)",Oklahoma City,OK,73118,211120,"C,W-ONSH",1275834.226,1692275.992,1042170.464,1191797.062,844629.94,867805.928,1040799.854,1346026.744,872470.054,558994.894
1008527,"Chesapeake Operating LLC, 230 - Arkla Basin",230 - Arkla Basin,Oklahoma City,OK,73118,211130,W-ONSH,83896.642,146681.274,171009.014,161186.348,205642.502,236545.974,227425.27,169838.608,202642.566,461430.208
1008528,"Chesapeake Operating LLC, 260 - East Texas Basin",260 - East Texas Basin,Oklahoma City,OK,73118,211120,W-ONSH,22938.938,29902.524,0.0,2017.496,3113.428,463.346,50341.47,51151.502,76758.842,100076.51
1008530,"Chesapeake Operating LLC, 360 - Anadarko Basin",360 - Anadarko Basin,Oklahoma City,OK,73118,211120,W-ONSH,263627.66,376195.366,405305.152,1130167.474,1178596.122,1830756.92,2218586.256,2050758.406,1457214.502,1459411.892
1008538,"Chesapeake Operating LLC, 515 - Powder River Basin",515 - Powder River Basin,Oklahoma City,OK,73118,211120,W-ONSH,167030.088,342348.282,155825.47,84199.64,80492.796,86739.794,113676.352,166495.71,169077.97,92949.22
1009240,Chevron MCA 430 Permian Basin,430 - Permian Basin,San Ramon,CA,94583,211130,W-ONSH,242499.538,431066.174,356139.686,331744.29,197188.856,263732.564,220590.896,190681.226,265403.388,330005.662
1009485,Chief Oil & Gas LLC (160A),160A - Appalachian Basin (Eastern Overthrust Area),Dallas,TX,75225,211130,W-ONSH,190482.518,150310.032,138138.64,128285.548,60734.158,55198.144,116112.04,74162.2,43381.212,21437.314
1008702,Cimarex Energy Co. 360 Anadarko,360 - Anadarko Basin,Tulsa,OK,74103,211120,W-ONSH,286714.128,389256.022,407363.586,375094.754,441574.942,504577.182,388243.738,338890.016,280128.382,318310.042
1008544,Cimarex Energy Co. 430 Permian,430 - Permian Basin,Tulsa,OK,74103,211120,W-ONSH,398700.758,741889.118,558189.134,556862.698,612324.396,802006.842,782577.376,649927.44,402940.64,135975.29
1008698,Cimarex Energy Co. of Colorado 360 Anadarko,360 - Anadarko Basin,Tulsa,OK,74103,211120,W-ONSH,9896.346,25241.88,36476.922,54186.818,86672.2,105384.5,86159.354,85757.4,120376.084,118271.628
1008700,Cimarex Energy Co. of Colorado 430 Permian,430 - Permian Basin,Tulsa,OK,74103,211120,W-ONSH,102981.892,164378.87,226272.492,170214.128,165682.15,251868.948,226011.896,210790.58,244523.192,173980.714
1008959,"Compass Production Partners, LP - Permian Basin #430",430 - Permian Basin,Tulsa,OK,74136,211120,W-ONSH,25655.35,25640.85,26009.748,76270.95,88086.148,87551.998,77560.242,71839.83,37062.57,31355.128
1009890,"Comstock Resources, Inc. - Basin 230",230 - Arkla Basin,Frisco,TX,75034,211120,W-ONSH,215177.064,260581.506,108080.918,88228.984,42532.716,56615.66,44740.376,50412.632,58339.536,95900.818
1009907,"Comstock Resources, Inc. - Basin 260",260 - East Texas Basin,Frisco,TX,75034,211120,W-ONSH,130177.552,155170.334,31056.982,28234.002,29800.03,33501.23,33399.732,36880.174,38777.672,45682.392
1007475,ConocoPhillips Anadarko (360),360 - Anadarko Basin,Houston,TX,77079,211130,W-ONSH,98853.89,107771.516,107092.922,112537.416,135538.054,136893.424,205224.69,202932.54,183416.336,189076.714
1007485,"ConocoPhillips Gulf Coast Basin 220, Production","220 - Gulf Coast Basin (LA, TX)",Houston,TX,77079,211120,W-ONSH,1298812.784,1278132.514,1178086.252,1100549.232,1020084.042,916012.862,1209204.87,1370641.6,1343862.494,979329.508
1007479,ConocoPhillips Permian (430),430 - Permian Basin,Houston,TX,77079,211120,"UU,W-ONSH",168654.574,301164.344,146202.954,137083.098,97537.498,159435.486,107514.296,85159.458,76610.568,83883.47
1007481,ConocoPhillips' Uinta (575),575 - Uinta Basin,Houston,TX,77079,211130,W-ONSH,26257.1,45115.8,48793.4,47512.0,48249.9,49168.2,53791.7,76964.5,235401.2,224023.5
1007482,ConocoPhillips' Williston (395),395 - Williston Basin,Houston,TX,77079,211120,W-ONSH,617449.554,1143592.314,731887.68,477769.48,336585.694,981930.144,1006276.414,540127.93,489651.42,194097.356
1007483,ConocoPhillips' Wind River (530),530 - Wind River Basin,Houston,TX,77079,211130,W-ONSH,34712.846,30912.896,31171.796,33173.646,35815.396,48974.48,82661.886,155754.796,82575.94,64520.89
1009878,Contura Pennsylvania Land LLC,160A - Appalachian Basin (Eastern Overthrust Area),Waynesburg,PA,15370,211130,W-ONSH,40766.138,41460.588,48377.284,50435.932,65759.772,69207.564,71842.062,67567.008,78409.604,79663.954
1008206,Crestone Peak - Denver Basin,540 - Denver Basin,Firestone,CO,80504,211120,W-ONSH,232470.04,285294.472,245945.944,236119.128,273445.752,309755.94,340805.796,236490.928,192872.296,169362.81
1010164,Daylight Petroleum LLC (Pintail Acquisition),"220 - Gulf Coast Basin (LA, TX)",Houston,TX,77010,211120,W-ONSH,44728.422,19712.144,44627.552,23509.65,35374.016,40818.758,80718.0,2302.8,44437.26,52335.624
1008202,Denver Basin - AAPG Province 540,540 - Denver Basin,Denver,CO,80202,211120,W-ONSH,307093.228,299676.896,437497.908,483101.072,635321.638,606066.17,685654.24,726719.956,219249.822,334310.258
1010294,Discovery Natural Resources LLC - 430 Permian Basin,430 - Permian Basin,Denver,CO,80202,211120,W-ONSH,114619.142,161328.038,139819.868,124131.216,98970.286,99104.984,120503.282,126641.23,57839.3,44571.644
1008170,Dominion Energy Wexpro - Central Western Overthrust (Prod),507 - Central Western Overthrust,Salt Lake City,UT,84101,211130,W-ONSH,85250.792,81949.098,71055.144,89712.196,93482.648,97881.246,118699.094,135908.494,128777.644,125767.342
1008590,Dominion Energy Wexpro - Green River Basin (Prod),535 - Green River Basin,Salt Lake City,UT,84101,211130,W-ONSH,307622.876,358198.812,293387.764,304347.204,243279.904,230721.282,259601.78,277477.638,288209.148,314409.304
1008540,Dugan Production Corp- San Juan Basin,580 - San Juan Basin,Farmington,NM,87401,211130,W-ONSH,40820.252,24112.248,91094.814,44705.178,58271.84,182458.266,106559.836,159984.846,106215.7,189556.8
1008598,"Duncan Oil Properties, Inc. 360 Anadarko Basin",360 - Anadarko Basin,Oklahoma City,OK,73102,211120,W-ONSH,63705.946,69900.872,73315.53,63123.194,74025.262,68183.886,35028.968,54589.968,68658.1,53327.17
1008976,"EOG Resources, Inc. 350 South Oklahoma folded belt",350 - South Oklahoma Folded Belt,Houston,TX,77002,211120,W-ONSH,58954.832,70489.2,78880.836,107085.972,129452.672,251095.684,324616.29,350242.44,231426.22,140674.138
1008352,"EOG Resources, Inc. 360 Anadarko basin",360 - Anadarko Basin,Houston,TX,77002,211120,W-ONSH,69564.754,123107.94,149808.824,105339.822,170560.042,212286.332,249479.784,233598.368,122047.446,274656.63
1008980,"EOG Resources, Inc. 395 Williston basin",395 - Williston Basin,Houston,TX,77002,211120,W-ONSH,60408.872,196551.932,275528.06,149894.308,176656.692,138796.642,868890.768,669877.022,620002.456,665714.898
1008977,"EOG Resources, Inc. 420 Fort Worth syncline",420 - Fort Worth Syncline,Houston,TX,77002,211120,W-ONSH,157752.51,173979.892,185317.744,276134.514,320085.3,601767.718,768943.24,807406.676,443352.78,406788.484
1008351,"EOG Resources, Inc. 430 Permian basin",430 - Permian Basin,Houston,TX,77002,211120,W-ONSH,577305.328,978795.784,977033.836,800878.54,284272.278,423270.048,319057.33,239747.456,313648.422,190881.196
1008353,"EOG Resources, Inc. 535 Green River basin",535 - Green River Basin,Houston,TX,77002,211120,W-ONSH,4876.546,7320.796,9314.694,34863.188,86831.698,145757.85,132495.3,131589.0,52934.67,34070.87
1008979,"EOG Resources, Inc. 540 Denver basin",540 - Denver Basin,Houston,TX,77002,211120,W-ONSH,45698.136,169523.922,106563.054,50384.26,30000.186,44467.042,88002.264,114863.8,199109.524,292785.868
1008354,"EOG Resources, Inc. 575 Uinta basin",575 - Uinta Basin,Houston,TX,77002,211120,W-ONSH,51200.142,101725.662,224083.398,82107.894,115253.55,587712.798,520362.35,562551.192,197762.198,138863.006
1008219,"EOG Resources, Inc.220 Gulf Coast basin","220 - Gulf Coast Basin (LA, TX)",Houston,TX,77002,211120,W-ONSH,306119.356,634498.184,644055.682,888255.674,825985.882,1067979.59,1386171.056,989212.698,935818.72,734526.738
1008092,EP Energy E&P 220 Gulf Coast Basin,"220 - Gulf Coast Basin (LA, TX)",Houston,TX,77002,211130,W-ONSH,192659.23,87331.302,361804.994,106435.594,195907.392,219804.24,281002.198,258020.494,336027.806,390542.762
1009350,EP Energy E&P 575 Uinta Basin,575 - Uinta Basin,Houston,TX,77002,211130,W-ONSH,93943.042,77623.696,85617.39,170897.522,159204.562,137639.298,124835.788,132740.124,101019.25,33951.9
1009098,EQT CHAP LLC - Basin 160A - Appalachian Eastern Overthrust,160A - Appalachian Basin (Eastern Overthrust Area),Pittsburgh,PA,15222,211130,W-ONSH,81867.028,152317.774,111483.446,73918.566,55538.28,101354.464,186531.042,107408.046,110017.456,77552.682
1009308,EQT Production - Basin 160 - Appalachian,160 - Appalachian Basin,Pittsburgh,PA,15222,211130,W-ONSH,0.0,0.0,52.75,32296.69,25579.374,61780.608,45261.068,46006.728,57613.84,442111.136
1010233,EQT Production - Basin 160A - Appalachian Eastern Overthrust,160A - Appalachian Basin (Eastern Overthrust Area),Pittsburgh,PA,15222,211130,W-ONSH,599748.104,458414.612,559462.188,640265.796,224886.694,307473.876,255751.482,537030.246,210324.54,1304261.536
1008673,"EXCO Resources (PA), LLC - Basin 160A",160A - Appalachian Basin (Eastern Overthrust Area),Kittanning,PA,16201,211130,W-ONSH,33412.048,29235.242,28992.698,28372.498,32469.798,53259.534,52488.124,58512.748,67917.544,59781.794
1008957,"EXCO Resources, Inc. - Arkla Basin #230",230 - Arkla Basin,Dallas,TX,75251,211130,W-ONSH,201540.364,525309.416,286116.748,154680.01,89484.84,82103.106,110294.43,100189.562,290498.708,377101.106
1008958,"EXCO Resources, Inc. - East Texas Basin #260",260 - East Texas Basin,Dallas,TX,75251,211130,W-ONSH,120505.296,99585.696,84907.446,23074.042,34283.28,52393.576,33603.368,12165.2,81574.244,128172.142
1009956,"Elk Operating Services, LLC 585 Paradox Basin",585 - Paradox Basin,Denver,CO,80203,211120,"UU,W-ONSH",51563.816,156239.228,93052.532,75276.808,61535.576,72353.496,175145.336,121769.638,157075.54,244094.644
1011659,Endeavor Energy Resources LP 430 Permian Basin,430 - Permian Basin,Midland,TX,79701,211120,W-ONSH,1116503.796,2118286.87,632774.648,262919.65,267075.714,257629.572,315596.732,308107.372,290548.538,266466.038
1009595,Enerplus Resources (USA) Corporation - Williston Basin,395 - Williston Basin,Denver,CO,80202,211120,W-ONSH,531017.976,806102.934,641676.846,542803.352,325756.796,386399.796,509958.514,197165.212,168039.332,219769.838
1009967,"Enervest Operating, L.L.C. 160 Appalachian Basin",160 - Appalachian Basin,Houston,TX,77002,211130,W-ONSH,154791.25,147222.1,165046.986,186287.55,297016.186,328247.64,358912.37,347002.988,522352.492,566488.544
1009932,"Enervest Operating, L.L.C. 160A Appalachian Basin (Eastern Overthrust area)",160A - Appalachian Basin (Eastern Overthrust Area),Houston,TX,77002,211130,W-ONSH,222871.198,228693.85,208628.7,197550.1,317978.38,256546.3,274124.45,211469.762,394282.45,1075807.55
1009666,"Enervest Operating, L.L.C. 415 Strawn Basin",415 - Strawn Basin,Houston,TX,77002,211130,W-ONSH,339841.988,995842.466,645347.11,753882.538,171145.944,124467.366,183631.506,123787.984,112537.286,33955.394
1009689,"Enervest Operating, L.L.C. 420 Fort Worth Syncline",420 - Fort Worth Syncline,Houston,TX,77002,211130,W-ONSH,14697.876,132601.358,449003.278,390761.618,341011.388,261478.506,509699.302,441487.802,432522.714,1207089.91
1008604,Ensign Gulf Coast Basin-Production,"220 - Gulf Coast Basin (LA, TX)",Pawnee,TX,78145,211120,W-ONSH,81438.426,136224.102,109613.566,134354.542,136038.53,206431.688,233617.334,253550.596,208410.35,398927.756
1008475,EnverVest Operating L.L.C.- 430 HighMount Permian,430 - Permian Basin,Houston,TX,77060,211130,W-ONSH,221920.3,635201.95,597198.15,546626.75,523952.4,445432.244,399232.832,636132.03,677238.556,668590.806
1008608,"Evergreen Natural Resources, LLC. Las Vegas-Raton",455 - Las Vegas-Raton Basin,Trinidad,CO,81082,211130,W-ONSH,216592.99,210725.946,210461.896,209566.398,193022.984,195959.032,186632.506,177342.37,171864.222,177429.462
1009357,Finley Resources Inc - Uintah Basin (575),575 - Uinta Basin,Fort Worth,TX,76102,211120,W-ONSH,84113.864,95446.474,91491.866,61227.732,64483.744,141277.466,168686.634,212426.026,318819.648,341783.704
1008753,Foundation Energy Management 345 Arkoma Basin,345 - Arkoma Basin,Addison,TX,75001,211130,W-ONSH,82443.118,85369.504,85422.508,60221.882,38761.338,72578.916,35019.082,28361.736,83668.838,95643.132
1008755,Foundation Energy Management 540 DJ Basin,540 - Denver Basin,Addison,TX,75001,211130,W-ONSH,48793.14,50554.768,50842.02,71982.842,80863.824,64245.02,144220.786,163330.558,159982.816,67294.278
1008323,Foundation Energy Management 595 Piceance Basin,595 - Piceance Basin,Addison,TX,75001,211130,W-ONSH,27742.144,33000.688,47932.942,55137.588,58682.64,43400.522,38311.246,69245.216,51038.388,36482.796
1010222,GULF COAST BASIN,"220 - Gulf Coast Basin (LA, TX)",HOUSTON,TX,77002,211130,W-ONSH,1228151.178,1238843.328,1233583.778,1418322.572,1109795.352,961543.11,193830.258,52718.884,38809.392,29952.048
1009848,GeoSouthern Energy Corporation,"220 - Gulf Coast Basin (LA, TX)",Brenham,TX,77833,211130,W-ONSH,57667.394,67448.764,55809.852,44076.038,34566.162,42327.446,35169.516,329662.528,234015.218,260842.842
1009625,"Grayson Mill Operating, LLC",395 - Williston Basin,Houston,TX,77079,211120,W-ONSH,557101.378,656280.05,535423.682,367705.358,332092.618,524334.814,945047.454,1289798.746,816766.906,442940.44
1008794,Great Western Oil & Gas Company - D-J Basin,540 - Denver Basin,Denver,CO,80290,211130,W-ONSH,158818.276,293419.466,345260.83,256932.584,196595.156,144371.944,29440.282,34049.562,31258.104,13044.844
1008954,Green River Basin - 535,535 - Green River Basin,Houston,TX,77210,211130,W-ONSH,109933.0,105473.5,96972.85,34894.8,97962.45,61913.55,69770.4,111223.5,46284.0,56523.65
1006564,Greylock Energy,160A - Appalachian Basin (Eastern Overthrust Area),Charleston,WV,25311,211120,W-ONSH,72809.888,37009.772,82837.414,77684.25,95278.398,44151.08,40922.894,35617.448,39744.442,43878.136
1008714,Gulf Coast Facility,"220 - Gulf Coast Basin (LA, TX)",Houston,TX,77024,211130,W-ONSH,110275.084,116594.736,120949.448,73809.552,42778.818,55443.808,73420.578,84342.84,213705.548,550145.398
1008490,Hess Corporation - 395 - Williston Basin,395 - Williston Basin,Houston,TX,77010,211120,W-ONSH,1750517.3068745756,2149291.329698496,1614816.8989161917,1273191.558,1049929.354,1537528.224,1494785.314,1278658.01,1350024.726,698529.668
1009354,HighPoint Operating Corporation - Denver Basin (540),540 - Denver Basin,Denver,CO,80202,211120,W-ONSH,286194.984,342750.788,285410.864,217131.338,159649.912,164410.73,131712.076,81897.726,74043.376,43662.942
1007599,"Indigo Minerals, LLC",230 - Arkla Basin,Houston,TX,77002,211130,W-ONSH,484715.206,509587.51,470207.016,436794.874,346635.376,188380.484,219456.234,91734.866,99210.496,40433.928
1007037,"J. Cleo Thompson & James Cleo Thompson, Jr. L.P. 430 Permian Basin",430 - Permian Basin,Dallas,TX,75201,211120,W-ONSH,19523.342,19306.644,18460.55,23846.9,23375.65,21085.28,33594.1,30652.4,17341.9,38339.65
1008411,JMA Energy 360,360 - Anadarko Basin,OKC,OK,73118,211120,W-ONSH,30690.39,36803.604,50880.842,49180.784,38788.272,37827.028,31618.356,51772.372,49240.824,52079.014
1008066,"Jordan Development Company, LLC",305 - Michigan Basin,Traverse City,MI,49696,211130,W-ONSH,75639.91,61352.552,79223.654,80706.14,92488.776,106983.552,126573.084,98043.964,141447.114,130024.42
1009135,Kaiser-Francis Oil Company 360 Anadarko Basin,360 - Anadarko Basin,Tulsa,OK,74136,211120,W-ONSH,93715.046,106400.196,82829.596,131181.566,135035.024,162131.194,159514.75,161254.408,221800.842,842079.74
1008703,Key Production Co. 360 Anadarko,360 - Anadarko Basin,Tulsa,OK,74103,211120,W-ONSH,7179.15,9761.6,11083.5,19413.394,39131.8,44086.75,39941.872,39444.768,42711.97,40146.462
1008299,"LAMBDA ENERGY RESOURCES, LLC-Michigan Basin",305 - Michigan Basin,HOUSTON,TX,77079,211130,W-ONSH,92310.89,127876.536,139697.63,129887.464,124424.128,104066.224,102077.37,118317.472,118573.862,96925.012
1009683,"Laredo Energy 220 Gulf Basin (LA, TX)","220 - Gulf Coast Basin (LA, TX)",Houston,TX,77024,211130,W-ONSH,70102.392,70714.118,39037.994,32344.374,54991.88,29111.058,16014.564,33745.3,116449.926,100120.76
1009056,Laredo Petroleum Basin 430,430 - Permian Basin,Tulsa,OK,74119,211120,W-ONSH,402542.942,309941.254,207049.81,223262.352,181101.876,200085.678,245125.458,88934.01,69428.57,31765.688
1009588,Lewis Energy Group,"220 - Gulf Coast Basin (LA, TX)",San Antonio,TX,78216,211130,W-ONSH,398694.456,345325.728,378978.878,387773.43,314130.054,364339.122,1244930.978,1034518.588,658189.478,265486.854
1009762,Luff Exploration Company - 395 - Williston Basin,395 - Williston Basin,Denver,CO,80203,211120,W-ONSH,34320.064,33564.916,33210.216,32487.216,28812.632,29270.84,24798.622,38401.486,31942.722,41023.92
1004628,MACPHERSON OIL COMPANY,745 - San Joaquin Basin,BAKERSFIELD,CA,93308,211120,W-ONSH,68050.346,144072.118,172282.56,196416.01,186811.948,289453.952,374153.042,332565.296,286880.772,2472.544
1010320,MAVERICK- BASIN 305 PRODUCTION,305 - Michigan Basin,GAYLORD,MI,49735,211130,W-ONSH,58940.484,73105.388,81742.366,90354.802,88300.652,88037.498,87345.186,96113.466,94661.596,169947.744
1009274,MERIT ENERGY CO LLC 360 ANADARKO BASIN,360 - Anadarko Basin,DALLAS,TX,75240,211130,W-ONSH,114611.946,123684.58,134367.286,132613.682,114773.556,50683.6,32141.17,78899.116,76533.824,28639.106
1009353,Marathon Oil Anadarko Basin (AAPG 360),360 - Anadarko Basin,Oklahoma City,OK,73132,211120,W-ONSH,219358.752,212980.14,204920.724,419791.15,231266.82,168297.59,148978.486,218465.376,272327.254,442537.026
1008173,"Marathon Oil Corporation Williston Basin, AAPG Basin 395",395 - Williston Basin,Dickinson,ND,58601,211120,W-ONSH,1649011.046,3322123.788,2396637.506,1050886.25,542416.006,991803.75,791293.01,690509.204,649660.344,463635.932
1008293,Marathon Oil EF - Gulf Coast Basin (AAPG Basin Number 220),"220 - Gulf Coast Basin (LA, TX)",Houston,TX,77056,211120,W-ONSH,467655.726,433524.99,368258.37,345676.49,324194.222,953669.488,990126.12,722178.932,633921.05,343731.732
1008383,Marathon Oil So. Oklahoma Folded Belt (AAPG 350),350 - South Oklahoma Folded Belt,Oklahoma City,OK,73132,211120,W-ONSH,90966.43,51024.84,21916.656,34517.06,33590.068,44132.008,47903.352,52551.738,42589.65,43623.544
1008588,"Merit Energy Arkoma Basin, AAPG Basin 345",345 - Arkoma Basin,Dallas,TX,75240,211130,W-ONSH,234169.96,54433.256,77296.088,127474.262,157632.872,185712.876,185771.926,238752.676,248587.82,175303.254
1000435,Merit Energy Co. South Texas 220 Gulf Coast Basin,"220 - Gulf Coast Basin (LA, TX)",Dallas,TX,75240,211130,W-ONSH,295413.672,338988.102,345928.442,308565.3,184798.28,269289.698,378837.832,343652.016,466126.408,221021.802
1008506,Mid-Gulf Coast Basin Code 210,210 - Mid-Gulf Coast Basin,Jackson,MS,39201,211120,W-ONSH,46221.576,74756.382,87705.482,171909.412,125150.348,95535.34,108152.78,105459.796,73277.592,51509.354
1010318,"Mission Creek OpCo, LLC - Arkla Basin",230 - Arkla Basin,Stamps,AR,71860,211130,"UU,W-ONSH",31360.798,32928.772,31222.598,27933.248,31319.844,34804.902,25059.69,15959.888,68057.81,37505.358
1008113,MurphyE&P-220,"220 - Gulf Coast Basin (LA, TX)",Houston,TX,77024,211120,W-ONSH,86025.506,149921.476,94740.54,147718.454,120062.22,372322.496,843530.968,1209431.608,565978.948,148757.538
1009436,Muskegon Development Company,305 - Michigan Basin,Mount Pleasant,MI,48858,211120,W-ONSH,53090.136,62994.364,67248.546,70939.546,75356.526,80888.706,77140.382,82325.062,84557.552,80955.888
1009686,Nadel and Gussman Ruston Arkla Basin No. 230,230 - Arkla Basin,Tulsa,OK,74103,211130,W-ONSH,51224.338,52442.358,62587.7,64031.08,61399.058,68295.346,85715.58,113629.628,69578.224,64821.432
1009582,Naftex Operating Company,745 - San Joaquin Basin,Bakersfield,CA,93307,211120,W-ONSH,32216.078,40462.846,33068.224,30912.432,28359.292,29565.692,42146.092,40830.15,44904.228,13596.39
1009139,OGRIS Operating LLC,455 - Las Vegas-Raton Basin,Trinidad,CO,81082,211130,W-ONSH,86569.998,104640.962,125397.63,294347.596,88454.1856,68454.18,48828.742,72810.958,85287.648,54113.896
1010325,Oasis Petroleum,395 - Williston Basin,Houston,TX,77002,211120,W-ONSH,441987.444,1433116.51,1415002.708,1172783.076,674944.048,2507899.49,902953.948,938101.978,265195.788,363582.338
1009115,Ovintiv USA Inc. 355.Chautauqua Platform,355 - Chautauqua Platform,The Woodlands,TX,77380,211120,W-ONSH,55801.11,31644.33,52322.208,81708.934,56406.274,32586.752,19488.038,20368.932,52381.412,52529.016
1009260,Ovintiv USA Inc. 360.Anadarko Basin,360 - Anadarko Basin,The Woodlands,TX,77380,211120,W-ONSH,322405.972,385985.556,362658.078,570600.41,368170.49,265260.136,92844.52,141168.41,156438.946,187186.388
1009261,Ovintiv USA Inc. 395.Williston Basin,395 - Williston Basin,The Woodlands,TX,77380,211120,W-ONSH,300182.372,447750.18,503717.824,369893.416,172044.426,330157.23,471339.214,189914.04,11671.006,233438.28
1008407,Ovintiv USA Inc. 575.Uinta,575 - Uinta Basin,The Woodlands,TX,77380,211120,W-ONSH,93590.512,89586.566,100429.376,102617.592,78050.202,96272.006,124411.746,106369.132,130448.564,109583.046
1008053,Own Resources Operating LLC,540 - Denver Basin,Spring,TX,77831,211130,W-ONSH,49282.284,50339.728,34027.024,35722.9,39576.154,45412.014,51357.518,53349.56,62882.45,71126.176
1008141,Oxy Permian Basin - 430,430 - Permian Basin,Midland,TX,79706,211120,W-ONSH,3221437.482,916258.082,778286.092,578774.504,592293.0,493248.318,275448.874,153123.602,174240.794,87273.734
1009286,PDC Energy 540 Denver Basin,540 - Denver Basin,Denver,CO,80203,211130,W-ONSH,899370.592,794972.884,720795.856,800600.38,699538.202,566403.83,640366.856,567721.47,498363.988,370755.128
1011962,Paxton Resources,305 - Michigan Basin,Gaylord,MI,49735,211120,W-ONSH,54236.51,88218.99,83951.38,99888.906,94784.388,148455.762,169863.364,138573.844,121587.494,106652.122
1008882,Pennsylvania General Energy Company LLC,160A - Appalachian Basin (Eastern Overthrust Area),Warren,PA,16365,211130,W-ONSH,40545.55,49403.714,70234.204,30299.268,82990.738,91493.9,201952.088,118632.03,100436.68,111766.948
1009846,Permian Basin,430 - Permian Basin,Irving,TX,75039,211130,W-ONSH,108433.406,106027.352,109672.412,119972.738,114982.51,129089.276,69458.458,92712.516,83800.858,71231.192
1008607,"Pioneer Natural Resources USA, Inc.  Permian",430 - Permian Basin,Midland,TX,79702,211120,W-ONSH,413385.31,508061.108,406683.796,454018.384,537301.674,196111.938,335801.41,188152.528,205236.804,305116.096
1008203,Powder River Basin - AAPG Province 515,515 - Powder River Basin,Denver,CO,80202,211120,W-ONSH,38252.76,36247.606,15317.828,2721.628,13135.85,16156.768,105225.336,165253.32,106162.062,63288.808
1009335,Presidio Petroleum 360 Anadarko Basin,360 - Anadarko Basin,Fort Worth,TX,76102,211130,W-ONSH,766170.232,412035.744,492027.882,523741.758,569358.464,633665.182,945008.96,908230.368,574652.126,690842.782
1009101,REM 305 Michigan Basin - PRODUCTION,305 - Michigan Basin,Traverse City,MI,49684,211130,W-ONSH,214166.39,258988.946,310170.232,324731.442,291238.69,252358.238,258601.982,257454.424,291850.37,239293.292
1008051,"Range Resources - Appalachia, LLC - Basin 160A",160A - Appalachian Basin (Eastern Overthrust Area),Canonsburg,PA,15317,211130,W-ONSH,179655.928,255818.942,292985.518,304976.628,144173.2,275326.502,131574.16,90000.604,152571.188,141635.894
1005963,Red Willow Production Co.,580 - San Juan Basin,Ignacio,CO,81137,211130,W-ONSH,129117.7,132977.788,135684.442,154204.98,185004.938,95229.24,82150.578,69026.1,103006.806,108738.748
1008481,"Repsol Oil & Gas USA, LLC Appalachian basin (Eastern Overthrust area) - 160A",160A - Appalachian Basin (Eastern Overthrust Area),Warrendale,PA,15086,211130,W-ONSH,45510.85,82254.01,65665.334,80483.67,54030.788,62746.05,153165.252,65766.542,118737.476,145488.886
1009547,Revolution Operating Company Anadarko 360,360 - Anadarko Basin,Oklahoma City,OK,73134,211120,W-ONSH,204115.896,194512.91,317037.068,299607.46,252275.022,181623.424,152176.858,18862.792,82637.748,46721.678
1009624,SM Energy (Basin 220) South Texas,"220 - Gulf Coast Basin (LA, TX)",Denver,CO,80203,211130,W-ONSH,56853.536,83241.484,76211.32,65739.688,66768.884,131186.338,230926.978,224364.234,161318.57,182785.892
1009674,SM Energy (Basin 430) Permian Basin,430 - Permian Basin,Denver,CO,80203,211120,W-ONSH,420954.64,692440.002,522845.722,263076.812,109457.896,25139.57,83280.24,49983.846,23226.558,24163.576
1009720,"SN Operating, LLC 220 Gulf Coast Basin (LA, TX)","220 - Gulf Coast Basin (LA, TX)",Houston,TX,77002,211120,W-ONSH,123330.192,166611.584,184871.75,102845.15,149308.632,174775.41,171685.472,72636.776,42728.194,60340.506
1009584,Sabine Oil & Gas Corporation - 260 - East Texas Basin,260 - East Texas Basin,Houston,TX,77002,211120,W-ONSH,464727.604,486127.472,468829.318,409375.664,339353.304,515960.442,382387.418,242032.278,338016.242,265361.346
1009242,San Juan Basin,580 - San Juan Basin,Farmington,NM,87401,211120,W-ONSH,70511.778,177453.462,185573.628,91599.26,109285.37,158380.804,180400.59,185768.468,265258.008,256618.1
1007484,San Juan Basin (580),580 - San Juan Basin,Houston,TX,77002,211130,W-ONSH,2781956.482,2874637.832,2917479.186,2224914.022,2759590.94,2767357.106,3745699.078,6607125.292,5020111.126,6181128.484
1008806,SandRidge 360 Anadarko Basin,360 - Anadarko Basin,Oklahoma City,OK,73102,211120,W-ONSH,257659.244,336001.482,475572.094,833257.036,966616.86,1354807.154,1156476.182,925584.832,2185884.336,247173.94
1008807,SandRidge 375 Sedgwick Basin,375 - Sedgwick Basin,Oklahoma City,OK,73102,211120,W-ONSH,25699.95,27312.848,37248.474,82181.08,55988.292,110699.776,112480.226,54225.962,829747.274,3956.8
1009301,Seneca East Facilities,160A - Appalachian Basin (Eastern Overthrust Area),Brookville,PA,15825,211130,W-ONSH,157080.174,168939.92,173036.698,123404.214,131859.928,198108.9,223914.694,170476.734,123277.186,121854.038
1009706,"SilverBow Resources, LLC - Basin 220","220 - Gulf Coast Basin (LA, TX)",Houston,TX,77024,211120,W-ONSH,203574.548,220477.38,175775.31,217238.148,280941.304,281435.144,227717.162,272474.368,207719.186,173091.276
1009106,Slawson Exploration - Williston Basin 395,395 - Williston Basin,Denver,CO,80202,211120,W-ONSH,280717.922,492470.72,410412.936,207846.998,169153.258,274058.936,375492.688,167841.116,178852.324,161506.674
1008474,Stephens Production Company - ARKOMA Basin,345 - Arkoma Basin,Fort Smith,AR,72902,211130,W-ONSH,725019.826,690915.828,666601.276,261873.532,261063.784,276770.476,279329.85,1090864.488,1317019.94,1750914.69
1010291,"Summit Petroleum Company, LLC",305 - Michigan Basin,Traverse City,MI,49684,211120,W-ONSH,24974.384,23482.284,16254.488,26125.068,21350.426,23087.078,48541.98,22419.928,21862.028,30328.124
1008536,"TEP Barnett USA LLC, 415 - Strawn Basin",415 - Strawn Basin,Fort Worth,TX,76102,211130,W-ONSH,503738.286,621053.814,616133.802,615790.514,691103.47,830402.336,779469.592,736451.312,858837.664,865726.532
1008355,"TEP Rocky Mountain, LLC - 595 Piceance basin",595 - Piceance Basin,Parachute,CO,81635,211130,W-ONSH,589667.056,1375248.038,1311509.59,1336185.338,1318556.858,555965.39,637582.758,644162.052,622609.794,682302.484
1006770,TPIC Basin 220,"220 - Gulf Coast Basin (LA, TX)",HOUSTON,TX,77057,211120,W-ONSH,267475.188,287828.874515012,139492.408,63135.44,58994.47,44635.456,20825.528,17645.846,16665.326,20363.264
1006750,TRC cYPRESS gROUP LLC,745 - San Joaquin Basin,Taft,CA,93268,211120,W-ONSH,32490.086,33150.932,34842.376,34194.58,34802.33,30050.246,27613.906,23293.018,23892.21,41437.054
1007486,"Tanos Exploration II, LLC Arkla Basin, AAPG 230",230 - Arkla Basin,Tyler,TX,75701,211130,W-ONSH,143345.04,178322.616,149992.252,147259.444,96299.966,107045.114,129868.648,125109.292,141643.514,150351.792
1008885,"Tellus Operating Group, LLC - MS Operations",210 - Mid-Gulf Coast Basin,Ridgeland,MS,39157,211120,W-ONSH,25850.204,25777.184,46682.06,62800.31,55479.904,75856.806,83183.646,94745.57,64958.242,53416.756
1008348,Trendwell Energy Corporation,305 - Michigan Basin,Rockford,MI,49341,211130,W-ONSH,100216.626,97943.278,93280.45,112385.43,116466.782,165853.546,106501.818,113071.75,114239.896,121569.286
1009389,UGC 575 Uintah,575 - Uinta Basin,Rangely,CO,81648,211130,W-ONSH,135000.794,150785.5065,154222.8302,186921.3011,192596.6422,281043.594,233591.17,201700.77,129132.48,89152.294
1009125,UP Energy/Green River Basin,535 - Green River Basin,Englewood,CO,80112,211130,W-ONSH,121779.754,261036.97,361675.02,354522.394,323107.844,313307.346,247733.628,154139.734,125361.662,239403.502
1009165,Uinta Basin - Caerus Uintah,575 - Uinta Basin,Denver,CO,80202,211130,W-ONSH,160982.796,278644.51,220666.978,250071.9,250568.908,326321.544,447640.024,440989.802,417721.272,366724.47
1008242,Unit Petroleum 166 Golf Coast,"220 - Gulf Coast Basin (LA, TX)",Tulsa,OK,74136,211120,W-ONSH,56111.448,78630.124,40047.154,38693.648,48404.78,58774.906,49614.772,39907.866,52584.01,62852.678
1008241,Unit Petroleum 783 Anadarko Basin,360 - Anadarko Basin,Tulsa,OK,74136,211120,W-ONSH,255599.41,299301.374,294943.622,276563.402,258625.778,269636.3,201960.542,272779.688,404718.438,189368.234
1010181,Ursa Resources Group II - 595 - Piceance Basin,595 - Piceance Basin,Rifle,CO,81650,211130,W-ONSH,121939.48,127801.638,122176.42,156901.914,158637.564,147698.166,127826.95,116255.772,64399.496,130011.846
1008587,Valence Operating Co 260 East Texas Basin,260 - East Texas Basin,Kingwood,TX,77339,211130,W-ONSH,99431.566,113359.368,112400.704,138853.184,149648.694,133230.922,143481.474,152508.774,108066.79,111890.496
1008090,"Validus Energy Aquilas AssetCo, LLC","220 - Gulf Coast Basin (LA, TX)",Denver,CO,80202,211120,W-ONSH,115272.138,146734.566,122895.948,122492.25,66063.88,56086.002,61271.498,635.65,756.4,1967.3
1008439,Venado Operating Company LLC 220 Gulf Coast Basin,"220 - Gulf Coast Basin (LA, TX)",Austin,TX,78738,211120,W-ONSH,98074.464,131183.698,58288.74,45609.802,125172.434,171514.184,157686.964,143064.55,101346.804,100225.656
1008081,"Vine Energy, Inc.",230 - Arkla Basin,Mansfield,LA,71052,211130,W-ONSH,186427.048,160762.264,187609.684,150379.142,150707.728,68373.538,49133.02,57695.54,144384.604,161694.662
1009039,WPX Energy Permian LLC,430 - Permian Basin,Oklahoma City,OK,73102,211130,W-ONSH,832796.65,858006.228,1385199.474,709735.144,137194.17,210348.17,419852.224,79480.18,46916.15,30838.462
1008190,West Bay,305 - Michigan Basin,Mason,MI,48854,211120,W-ONSH,35243.9,47341.764,55519.738,105151.842,57487.15,49160.514,58927.42,133405.906,158135.438,117721.996
1009783,"White Oak Energy 220 Gulf Coast Basin (LA, TX)","220 - Gulf Coast Basin (LA, TX)",Houston,TX,77060,211120,W-ONSH,60573.756,81359.458,92475.95,100834.338,89805.656,157013.49,59089.858,16195.518,47638.464,29501.206
1009197,Whiting Oil and Gas Corporation 395 Williston Basin,395 - Williston Basin,Denver,CO,80203,211120,W-ONSH,1027285.484,2172582.68,3149794.598,1504564.708,1160038.402,2183686.088,1929965.77,665304.254,439895.688,381316.374
1010190,"Williston Basin (Petro-Hunt, LLC)",395 - Williston Basin,Killdeer,ND,58640,211120,W-ONSH,1054274.118,1455154.246,880102.024,556413.444,506775.722,1163253.778,928383.692,143682.83,192452.516,210628.384
1009607,Williston Basin/Sinclair Oil & Gas Company,395 - Williston Basin,Salt Lake City,UT,84102,211120,W-ONSH,77322.062,107508.458,55461.484,88220.386,26056.512,44607.59,40693.898,22485.514,36318.164,28698.338
1008116,XTO Energy Inc 160A Appalachian E Overthrust,160A - Appalachian Basin (Eastern Overthrust Area),Warrendale,PA,15086,211130,W-ONSH,167508.1138,129033.4007,97371.2278,74264.9713,106965.1235,125164.538,139120.252,134289.628,74065.376,105435.822
1009386,XTO Energy Inc 220 Gulf Coast,"220 - Gulf Coast Basin (LA, TX)",Fort Worth,TX,76164,211130,W-ONSH,110555.2568,71938.3855,84756.8395,76572.6986,76538.082,187958.826,227679.172,165689.684,491548.52,640414.5
1009082,XTO Energy Inc 230 Arkla,230 - Arkla Basin,Tyler,TX,75703,211130,W-ONSH,41798.2048,45063.6201,48690.0394,60131.4386,61469.748,78701.642,52247.272,90514.584,84360.758,98879.168
1008079,XTO Energy Inc 260 East Texas,260 - East Texas Basin,Tyler,TX,75703,211130,W-ONSH,432115.5153,536691.4742,634383.9404,662541.6704,707212.2456,894089.532,896841.292,1111721.768,727727.868,498268.4
1009392,XTO Energy Inc 345 Arkoma,345 - Arkoma Basin,Oklahoma City,OK,73102,211130,W-ONSH,121835.6422,276930.5079,345534.1059,495764.008,547351.612,641131.492,606415.972,631387.616,829779.076,694491.178
1008616,XTO Energy Inc 350 South Oklahoma Folded Belt,350 - South Oklahoma Folded Belt,Oklahoma City,OK,73102,211130,W-ONSH,135329.8748,140910.8722,157707.7145,130185.0418,151274.3157,238045.98,197630.424,152098.064,123623.228,64507.13
1009143,XTO Energy Inc 360 Anadarko,360 - Anadarko Basin,Oklahoma City,OK,73102,211130,W-ONSH,85082.3248,97015.5825,80890.3067,105683.52,99132.4697,106550.586,108804.23,250025.958,189138.876,146691.978
1008275,XTO Energy Inc 395 Williston,395 - Williston Basin,Englewood,CO,80112,211130,W-ONSH,696920.5961,1770529.68,1048459.5693,759815.2132,897826.81,1113420.68,1106020.808,565682.646,434763.302,100287.562
1009387,XTO Energy Inc 415 Strawn,415 - Strawn Basin,Fort Worth,TX,76164,211130,W-ONSH,508575.4928,532822.7534,550478.7922,368705.9262,299317.814,458065.976,475712.38,538068.374,466198.708,243355.964
1009388,XTO Energy Inc 420 Fort Worth Syncline,420 - Fort Worth Syncline,Fort Worth,TX,76164,211130,W-ONSH,78347.1629,77934.4363,78434.9192,52289.4046,50198.5748,65402.076,74580.174,83541.102,66927.69,53484.864
1009390,XTO Energy Inc 430 Permian,430 - Permian Basin,Midland,TX,79701,211130,W-ONSH,726425.0784,1990272.2241,1632900.1024,647170.1003,485280.729,544433.098,335163.146,262364.68,276265.484,132785.162
1008078,XTO Energy Inc 507 Central Western Overthrust,507 - Central Western Overthrust,Englewood,CO,80112,211130,W-ONSH,48260.8539,54398.8657,54131.7456,56806.5062,58233.992,60247.942,66978.232,71244.974,43612.148,35205.45
